OBJECT_NAME,OBJECT_ID,EPOCH,MEAN_MOTION,ECCENTRICITY,INCLINATION,RA_OF_ASC_NODE,ARG_OF_PERICENTER,MEAN_ANOMALY,EPHEMERIS_TYPE,CLASSIFICATION_TYPE,NORAD_CAT_ID,ELEMENT_SET_NO,REV_AT_EPOCH,BSTAR,MEAN_MOTION_DOT,MEAN_MOTION_DDOT
STARLINK-3584,2022-022AK,2026-06-09T02:34:56.938080,15.08819445,.00013734,53.1695,308.6779,86.2243,273.8906,0,U,51885,999,23704,.3284222E-5,-.236E-5,0
STARLINK-3565,2022-022AL,2026-06-09T02:45:16.407936,15.08922276,.00011991,53.1791,308.6494,78.4754,281.6373,0,U,51886,999,23705,.22517326E-3,.3305E-4,0
STARLINK-3551,2022-022AM,2026-06-09T05:40:23.899872,15.08828235,.0001625,53.1646,308.1002,90.8272,269.2906,0,U,51887,999,23706,.20688E-4,.41E-6,0
STARLINK-3536,2022-022AN,2026-06-09T02:40:13.617408,15.08823791,.0001238,53.1678,308.6614,76.2103,283.9026,0,U,51888,999,23705,.93444812E-4,.1199E-4,0
STARLINK-3547,2022-022AP,2026-06-08T03:58:19.015104,15.08857164,.0000991,53.1690,312.9142,89.1857,270.9248,0,U,51889,999,23690,-.18715325E-3,-.3267E-4,0
STARLINK-3549,2022-022AR,2026-06-08T03:53:01.769856,15.08839843,.0001416,53.1688,312.9311,92.5079,267.6075,0,U,51891,999,23695,-.21501928E-3,-.3709E-4,0
STARLINK-3587,2022-022AS,2026-06-07T16:55:55.714080,15.08831416,.0001496,53.1686,314.9811,95.3347,264.7815,0,U,51892,999,23683,-.5192451E-5,-.371E-5,0
STARLINK-3579,2022-022AT,2026-06-09T03:29:18.068928,15.09321782,.00009402,53.2168,308.5329,70.4858,289.6236,0,U,51893,999,23711,.79356677E-3,.12531E-3,0
STARLINK-3595,2022-022AU,2026-06-09T03:38:30.202080,15.08840191,.00010501,53.1684,308.4811,94.4635,265.6476,0,U,51894,999,23711,.12455145E-4,-.9E-6,0
STARLINK-3594,2022-022AV,2026-06-09T03:27:54.875232,15.08845799,.00013452,53.1692,308.5130,95.9776,264.1369,0,U,51895,999,23705,-.62642505E-4,-.1285E-4,0
STARLINK-3593,2022-022AW,2026-06-07T17:01:15.640320,15.08826032,.00014006,53.1681,315.1862,85.5778,274.5373,0,U,51896,999,23688,.18522238E-3,.266E-4,0
STARLINK-3598,2022-022AX,2026-06-08T03:31:49.507392,15.08837523,.00012018,53.1682,312.9965,87.3706,272.7423,0,U,51897,999,23690,.6529941E-4,.751E-5,0
STARLINK-3597,2022-022AY,2026-06-09T03:17:19.895712,15.08844683,.00011777,53.1665,308.5492,96.7210,263.3915,0,U,51898,999,23710,-.11682117E-3,-.2147E-4,0
2022-023A,2022-023A,2026-06-09T12:36:20.013696,15.17938685,.0105516,63.4863,296.4318,343.0365,16.7228,0,U,51946,999,23655,.42745E-3,.9857E-4,0
2022-023B,2022-023B,2026-06-08T23:52:39.946656,15.17937818,.00993703,63.4858,297.6184,347.4126,12.4506,0,U,51947,999,23647,.10720786E-3,.2233E-4,0
2022-023C,2022-023C,2026-06-08T06:38:25.465632,15.18020411,.0102132,63.4955,301.4742,350.4145,9.5016,0,U,51948,999,23636,.2293E-3,.5127E-4,0
2022-023D,2022-023D,2026-06-08T14:59:15.377856,15.17971224,.01234643,63.4553,300.8342,355.8788,4.1295,0,U,51949,999,23641,.5349172E-3,.13119E-3,0
2022-023E,2022-023E,2026-06-09T12:54:22.935744,13.56286203,.0159127,63.4628,333.4726,348.6580,11.0881,0,U,51950,999,22099,.10688E-3,-.11E-6,0
2022-023F,2022-023F,2026-06-08T17:05:24.823104,15.17938636,.01293236,63.4454,302.2925,342.7663,16.9077,0,U,51951,999,23642,.62557508E-3,.15685E-3,0
STARLINK-3700,2022-025A,2026-06-07T17:15:58.860864,15.31705678,.00010763,53.1617,314.8593,85.4742,274.6383,0,U,51956,999,23496,-.632551E-6,-.385E-5,0
STARLINK-3694,2022-025B,2026-06-08T18:13:18.944256,15.31714997,.00011834,53.1608,333.2358,78.5986,281.5149,0,U,51957,999,23478,.4458853E-5,-.227E-5,0
STARLINK-3692,2022-025C,2026-06-09T03:29:40.213248,15.31702639,.0000874,53.1590,308.1302,67.8807,292.2287,0,U,51958,999,23518,.44267531E-4,.1009E-4,0
STARLINK-3704,2022-025D,2026-06-09T05:05:23.780256,15.31703276,.0000844,53.1599,331.6997,68.0321,292.0770,0,U,51959,999,23484,.48644E-4,.1145E-4,0
STARLINK-3691,2022-025E,2026-06-09T04:44:09.081312,15.31709661,.0001157,53.1606,331.0113,85.1762,274.9372,0,U,51960,999,23485,-.38513E-4,-.156E-4,0
STARLINK-3697,2022-025G,2026-06-08T17:42:06.409152,15.31708047,.000117,53.1623,320.7654,97.3731,262.7403,0,U,51962,999,23496,.37242883E-4,.791E-5,0
STARLINK-3675,2022-025H,2026-06-09T03:22:57.387072,15.31706809,.00012237,53.1605,308.1478,84.1267,275.9874,0,U,51963,999,23518,.2438778E-5,-.289E-5,0
STARLINK-3690,2022-025J,2026-06-08T17:22:00.092352,15.31686588,.00010263,53.1607,320.8170,70.6245,289.4867,0,U,51964,999,23496,-.56634734E-4,-.2121E-4,0
STARLINK-3696,2022-025K,2026-06-09T04:24:07.622784,15.31694633,.0000972,53.1598,331.6230,102.0070,258.1041,0,U,51965,999,23484,.7005E-4,.1809E-4,0
STARLINK-3699,2022-025L,2026-06-09T04:10:39.452736,15.31702031,.00011464,53.1615,331.4195,95.6691,264.4441,0,U,51966,999,23484,.27869281E-4,.5E-5,0
STARLINK-3681,2022-025N,2026-06-09T04:06:16.020000,15.31701843,.00009849,53.1595,318.7375,63.8735,296.2368,0,U,51968,999,23503,.33992064E-4,.69E-5,0
