STARLINK-3584           
1 51885U 22022AK  26160.10760345 -.00000236  00000+0  32842-5 0  9991
2 51885  53.1695 308.6779 0001373  86.2243 273.8906 15.08819445237043
STARLINK-3565           
1 51886U 22022AL  26160.11477324  .00003305  00000+0  22517-3 0  9990
2 51886  53.1791 308.6494 0001199  78.4754 281.6373 15.08922276237054
STARLINK-3551           
1 51887U 22022AM  26160.23638773  .00000041  00000+0  20688-4 0  9993
2 51887  53.1646 308.1002 0001625  90.8272 269.2906 15.08828235237066
STARLINK-3536           
1 51888U 22022AN  26160.11126872  .00001199  00000+0  93445-4 0  9999
2 51888  53.1678 308.6614 0001238  76.2103 283.9026 15.08823791237054
STARLINK-3547           
1 51889U 22022AP  26159.16549786 -.00003267  00000+0 -18715-3 0  9992
2 51889  53.1690 312.9142 0000991  89.1857 270.9248 15.08857164236903
STARLINK-3549           
1 51891U 22022AR  26159.16182604 -.00003709  00000+0 -21502-3 0  9996
2 51891  53.1688 312.9311 0001416  92.5079 267.6075 15.08839843236958
STARLINK-3587           
1 51892U 22022AS  26158.70550595 -.00000371  00000+0 -51925-5 0  9990
2 51892  53.1686 314.9811 0001496  95.3347 264.7815 15.08831416236836
STARLINK-3579           
1 51893U 22022AT  26160.14534802  .00012531  00000+0  79357-3 0  9991
2 51893  53.2168 308.5329 0000940  70.4858 289.6236 15.09321782237116
STARLINK-3595           
1 51894U 22022AU  26160.15173845 -.00000090  00000+0  12455-4 0  9994
2 51894  53.1684 308.4811 0001050  94.4635 265.6476 15.08840191237115
STARLINK-3594           
1 51895U 22022AV  26160.14438513 -.00001285  00000+0 -62643-4 0  9992
2 51895  53.1692 308.5130 0001345  95.9776 264.1369 15.08845799237056
STARLINK-3593           
1 51896U 22022AW  26158.70920880  .00002660  00000+0  18522-3 0  9997
2 51896  53.1681 315.1862 0001400  85.5778 274.5373 15.08826032236889
STARLINK-3598           
1 51897U 22022AX  26159.14710078  .00000751  00000+0  65299-4 0  9996
2 51897  53.1682 312.9965 0001201  87.3706 272.7423 15.08837523236906
STARLINK-3597           
1 51898U 22022AY  26160.13703583 -.00002147  00000+0 -11682-3 0  9990
2 51898  53.1665 308.5492 0001177  96.7210 263.3915 15.08844683237100
2022-023A               
1 51946U 22023A   26160.52523164  .00009857  00000+0  42745-3 0  9990
2 51946  63.4863 296.4318 0105516 343.0365  16.7228 15.17938685236552
2022-023B               
1 51947U 22023B   26159.99490679  .00002233  00000+0  10721-3 0  9994
2 51947  63.4858 297.6184 0099370 347.4126  12.4506 15.17937818236474
2022-023C               
1 51948U 22023C   26159.27668363  .00005127  00000+0  22930-3 0  9993
2 51948  63.4955 301.4742 0102132 350.4145   9.5016 15.18020411236367
2022-023D               
1 51949U 22023D   26159.62448354  .00013119  00000+0  53492-3 0  9996
2 51949  63.4553 300.8342 0123464 355.8788   4.1295 15.17971224236416
2022-023E               
1 51950U 22023E   26160.53776546 -.00000011  00000+0  10688-3 0  9995
2 51950  63.4628 333.4726 0159127 348.6580  11.0881 13.56286203220995
2022-023F               
1 51951U 22023F   26159.71209286  .00015685  00000+0  62558-3 0  9991
2 51951  63.4454 302.2925 0129323 342.7663  16.9077 15.17938636236429
STARLINK-3700           
1 51956U 22025A   26158.71943126 -.00000385  00000+0 -63255-6 0  9996
2 51956  53.1617 314.8593 0001076  85.4742 274.6383 15.31705678234968
STARLINK-3694           
1 51957U 22025B   26159.75924704 -.00000227  00000+0  44589-5 0  9995
2 51957  53.1608 333.2358 0001183  78.5986 281.5149 15.31714997234786
STARLINK-3692           
1 51958U 22025C   26160.14560432  .00001009  00000+0  44268-4 0  9996
2 51958  53.1590 308.1302 0000874  67.8807 292.2287 15.31702639235183
STARLINK-3704           
1 51959U 22025D   26160.21208079  .00001145  00000+0  48644-4 0  9994
2 51959  53.1599 331.6997 0000844  68.0321 292.0770 15.31703276234840
STARLINK-3691           
1 51960U 22025E   26160.19732733 -.00001560  00000+0 -38513-4 0  9999
2 51960  53.1606 331.0113 0001157  85.1762 274.9372 15.31709661234854
STARLINK-3697           
1 51962U 22025G   26159.73757418  .00000791  00000+0  37243-4 0  9998
2 51962  53.1623 320.7654 0001170  97.3731 262.7403 15.31708047234965
STARLINK-3675           
1 51963U 22025H   26160.14094198 -.00000289  00000+0  24388-5 0  9995
2 51963  53.1605 308.1478 0001223  84.1267 275.9874 15.31706809235184
STARLINK-3690           
1 51964U 22025J   26159.72361218 -.00002121  00000+0 -56635-4 0  9995
2 51964  53.1607 320.8170 0001026  70.6245 289.4867 15.31686588234962
STARLINK-3696           
1 51965U 22025K   26160.18342156  .00001809  00000+0  70050-4 0  9995
2 51965  53.1598 331.6230 0000972 102.0070 258.1041 15.31694633234848
STARLINK-3699           
1 51966U 22025L   26160.17406774  .00000500  00000+0  27869-4 0  9999
2 51966  53.1615 331.4195 0001146  95.6691 264.4441 15.31702031234843
STARLINK-3681           
1 51968U 22025N   26160.17101875  .00000690  00000+0  33992-4 0  9999
2 51968  53.1595 318.7375 0000984  63.8735 296.2368 15.31701843235038
